PERSEUS-M1              
1 40039U 14033AF  26188.77552213  .00001310  00000+0  12311-3 0  9999
2 40039  97.9645 133.2467 0010489 223.8302 136.2087 14.95696655653711
POLYITAN-1              
1 40042U 14033AJ  26188.01799811  .00014746  00000+0  45003-3 0  9998
2 40042  98.0940 216.1644 0008445  87.2204 273.0003 15.34009336656635
TIGRISAT                
1 40043U 14033AK  26187.92329466  .00001560  00000+0  18432-3 0  9999
2 40043  97.7856 337.4856 0049357  11.5693 348.6644 14.85232145648552
AEROCUBE 6A             
1 40045U 14033AM  26187.72615364  .00004181  00000+0  35158-3 0  9990
2 40045  97.7237 354.4701 0037298 310.0222  49.7729 14.98288236649540
AEROCUBE 6B             
1 40046U 14033AN  26188.71023843  .00002971  00000+0  24186-3 0  9990
2 40046  97.7215 355.2788 0037848 296.6954  63.0396 14.99755397649832
CANX-4                  
1 40055U 14034C   26187.60622334  .00000917  00000+0  12484-3 0  9994
2 40055  98.3097  63.6301 0011764 313.3306  46.6924 14.81300885647409
CANX-5                  
1 40056U 14034D   26188.07726639  .00000799  00000+0  10969-3 0  9994
2 40056  98.3099  64.1631 0011730 311.9106  48.1105 14.81318663638286
UKUBE-1                 
1 40074U 14037F   26188.72655405  .00004659  00000+0  26186-3 0  9998
2 40074  98.4246 194.1610 0003327 100.8732 259.2871 15.13875148651669
BRITE-PL2 (HEWELIUSZ)   
1 40119U 14049B   26188.25660079  .00001956  00000+0  18560-3 0  9996
2 40119  97.9109 300.4136 0014883  47.9370 312.3113 14.94668605644448
AEROCUBE 5C             
1 40965U 15058B   26188.01793934  .00002265  00000+0  20599-3 0  9996
2 40965  64.7654 200.8932 0131792  55.5592 305.7892 14.91542420368616
AEROCUBE 7              
1 40966U 15058C   26187.68997802  .00003817  00000+0  30749-3 0  9991
2 40966  64.7609 183.7222 0121451  54.0290 307.2015 14.95859784368878
FOX-1A (AO-85)          
1 40967U 15058D   26188.54145642  .00001843  00000+0  17269-3 0  9994
2 40967  64.7734 215.7243 0131774  48.7119 312.5249 14.91059408116607
SINOD-D 1               
1 40968U 15058E   26188.73516024  .00003038  00000+0  24717-3 0  9996
2 40968  64.7735 194.5574 0120447  45.0230 316.0571 14.96041699119731
SNAP-3 ALICE            
1 40970U 15058G   26188.78034868  .00116499  00000+0  11188-2 0  9998
2 40970  64.7497  32.4674 0023653 354.2669   5.8205 15.65652648120101
LMRST-SAT               
1 40971U 15058H   26188.50198351  .00001803  00000+0  17035-3 0  9997
2 40971  64.7739 212.2235 0133327  50.7368 310.5483 14.90675102116584
SNAP-3 EDDIE            
1 40972U 15058J   26188.75415819  .00112530  00000+0  10260-2 0  9998
2 40972  64.7409  23.1287 0024528 357.1810   2.9197 15.66926328122240
PROPCUBE 3              
1 40973U 15058K   26188.42061942  .00002731  00000+0  23118-3 0  9995
2 40973  64.7669 189.3128 0125196  51.9777 309.2559 14.94374781117825
BISONSAT                
1 40974U 15058L   26188.21317307  .00011741  00000+0  55568-3 0  9997
2 40974  64.7579 108.8709 0081316  39.2188 321.4789 15.16775347118658
SNAP-3 JIMI             
1 40975U 15058M   26188.29166876  .00005666  00000+0  38731-3 0  9991
2 40975  64.7638 156.1518 0107253  47.3702 313.6396 15.02533240117240
PROPCUBE 1 (FLORA)      
1 40976U 15058N   26188.13981268  .00001610  00000+0  15981-3 0  9992
2 40976  64.7732 233.3940 0131904  53.1708 308.1416 14.89304026119239
SINOD-D 3               
1 40977U 15058P   26187.38460425  .00003553  00000+0  30148-3 0  9996
2 40977  64.7708 215.8665 0120399  50.5430 310.6262 14.94130258117629
RAVAN                   
1 41849U 16067B   26188.69099505  .00038707  00000+0  53891-3 0  9997
2 41849  97.9853  80.6610 0001534 270.5676  89.5401 15.56861202530883
CELTEE 1                
1 41850U 16067C   26187.56424572  .00004765  00000+0  22559-3 0  9994
2 41850  98.0649  55.4525 0002028 120.7122 239.4312 15.19883845528820
OPTICUBE 04             
1 41851U 16067D   26188.75837407  .00001527  00000+0  98798-4 0  9994
2 41851  98.0684  42.1143 0016666  51.6345 308.6377 15.09750257528279
AEROCUBE 8D             
1 41852U 16067E   26187.58366541  .00006643  00000+0  27194-3 0  9996
2 41852  98.0655  59.2307 0004929  77.9453 282.2334 15.24686709529020
AEROCUBE 8C             
1 41853U 16067F   26188.06477431  .00005788  00000+0  23555-3 0  9998
2 41853  98.0530  56.9510 0005109  10.9574 349.1772 15.24945674529090
CORVUS BC2              
1 42846U 17042X   26188.38872309  .00002737  00000+0  18929-3 0  9993
2 42846  97.4091 348.9564 0013946  47.7457 312.4951 15.06428633490109
CORVUS BC1              
1 42847U 17042Y   26188.51393161  .00002244  00000+0  15535-3 0  9996
2 42847  97.4125 349.9041 0012399  26.5103 333.6756 15.06595315490158
MAKERSAT 0              
1 43016U 17073D   26187.63911723  .00016571  00000+0  44083-3 0  9999
2 43016  97.4596  70.3150 0104976 202.8118 156.8443 15.32782580469440
SIRION PATHFINDER-2     
1 43759U 18099B   26187.67083207  .00004650  00000+0  25427-3 0  9999
2 43759  97.4242 236.2659 0007650 223.3987 136.6643 15.14731584415573
